[
    {
        "CCSDS_OMM_VERS": "3.0",
        "COMMENT": "GENERATED VIA SPACE-TRACK.ORG API",
        "CREATION_DATE": "2025-07-31T18:11:57",
        "ORIGINATOR": "18 SPCS",
        "OBJECT_NAME": "STARLINK-34651",
        "OBJECT_ID": "2025-152V",
        "CENTER_NAME": "EARTH",
        "REF_FRAME": "TEME",
        "TIME_SYSTEM": "UTC",
        "MEAN_ELEMENT_THEORY": "SGP4",
        "EPOCH": "2025-07-31T14:00:01.999872",
        "MEAN_MOTION": "15.78618592",
        "ECCENTRICITY": "0.00013440",
        "INCLINATION": "97.5949",
        "RA_OF_ASC_NODE": "64.9993",
        "ARG_OF_PERICENTER": "71.8160",
        "MEAN_ANOMALY": "271.9732",
        "EPHEMERIS_TYPE": "0",
        "CLASSIFICATION_TYPE": "U",
        "NORAD_CAT_ID": "64861",
        "ELEMENT_SET_NO": "999",
        "REV_AT_EPOCH": "255",
        "BSTAR": "-0.00653610000000",
        "MEAN_MOTION_DOT": "-0.01009296",
        "MEAN_MOTION_DDOT": "0.0000000000000",
        "SEMIMAJOR_AXIS": "6712.491",
        "PERIOD": "91.219",
        "APOAPSIS": "335.258",
        "PERIAPSIS": "333.454",
        "OBJECT_TYPE": "PAYLOAD",
        "RCS_SIZE": "LARGE",
        "COUNTRY_CODE": "US",
        "LAUNCH_DATE": "2025-07-19",
        "SITE": "AFWTR",
        "DECAY_DATE": null,
        "FILE": "4801664",
        "GP_ID": "293978416",
        "TLE_LINE0": "0 STARLINK-34651",
        "TLE_LINE1": "1 64861U 25152V   25212.58335648 -.01009296  00000-0 -65361-2 0  9996",
        "TLE_LINE2": "2 64861  97.5949  64.9993 0001344  71.8160 271.9732 15.78618592  2550"
    }
]